[{"OBJECT_NAME":"GHGSAT-C5","OBJECT_ID":"2022-057N","EPOCH":"2026-03-09T21:50:12.501024","MEAN_MOTION":15.32921902,"ECCENTRICITY":0.00082696,"INCLINATION":97.6522,"RA_OF_ASC_NODE":212.4963,"ARG_OF_PERICENTER":109.8004,"MEAN_ANOMALY":250.413,"EPHEMERIS_TYPE":0,"CLASSIFICATION_TYPE":"U","NORAD_CAT_ID":52744,"ELEMENT_SET_NO":999,"REV_AT_EPOCH":21032,"BSTAR":0.00029214604,"MEAN_MOTION_DOT":9.218e-5,"MEAN_MOTION_DDOT":0},{"OBJECT_NAME":"STARLINK-35631","OBJECT_ID":"2025-237H","EPOCH":"2026-03-09T22:11:23.438976","MEAN_MOTION":15.30224149,"ECCENTRICITY":0.00014792,"INCLINATION":53.1604,"RA_OF_ASC_NODE":38.7377,"ARG_OF_PERICENTER":95.9433,"MEAN_ANOMALY":264.1737,"EPHEMERIS_TYPE":0,"CLASSIFICATION_TYPE":"U","NORAD_CAT_ID":66121,"ELEMENT_SET_NO":999,"REV_AT_EPOCH":2264,"BSTAR":0.0013195166,"MEAN_MOTION_DOT":0.00038956,"MEAN_MOTION_DDOT":0}]
